{
  "type": "FeatureCollection",
  "features": [
    {
      "type": "Feature",
      "properties": {
        "norad_id": 34588,
        "name": "COSMOS 2251 DEB",
        "group": "cosmos-2251-debris",
        "lat": 71.80951246221879,
        "lon": 33.50119399737261,
        "alt_km": 753.6736899846019,
        "timestamp": "2025-12-09T14:52:26.557153+00:00",
        "meta_object_name": "COSMOS 2251 DEB",
        "meta_object_id": "1993-036WA",
        "meta_epoch": "2025-12-09T06:41:12.908832",
        "meta_mean_motion": 14.42005254,
        "meta_eccentricity": 0.00191055,
        "meta_inclination": 74.0441,
        "meta_ra_of_asc_node": 274.6685,
        "meta_arg_of_pericenter": 327.7085,
        "meta_mean_anomaly": 160.7791,
        "meta_ephemeris_type": 0,
        "meta_classification_type": "U",
        "meta_norad_cat_id": 34588,
        "meta_element_set_no": 999,
        "meta_rev_at_epoch": 87900,
        "meta_bstar": 0.00086212429,
        "meta_mean_motion_dot": 2.809e-05,
        "meta_mean_motion_ddot": 0,
        "tle_line1": "1 34588U 93036WA  25343.27862163  .00002809  00000+0  86212-3 0  9991",
        "tle_line2": "2 34588  74.0441 274.6685 0019105 327.7085 160.7791 14.42005254879008"
      },
      "geometry": {
        "type": "Point",
        "coordinates": [
          33.50119399737261,
          71.80951246221879
        ]
      }
    },
    {
      "type": "Feature",
      "properties": {
        "norad_id": 34589,
        "name": "COSMOS 2251 DEB",
        "group": "cosmos-2251-debris",
        "lat": -27.72936967143654,
        "lon": -109.9336234677886,
        "alt_km": 1116.1208870833716,
        "timestamp": "2025-12-09T14:52:26.557163+00:00",
        "meta_object_name": "COSMOS 2251 DEB",
        "meta_object_id": "1993-036WB",
        "meta_epoch": "2025-12-08T06:57:07.176960",
        "meta_mean_motion": 13.86047375,
        "meta_eccentricity": 0.02517547,
        "meta_inclination": 73.9253,
        "meta_ra_of_asc_node": 63.614,
        "meta_arg_of_pericenter": 7.8505,
        "meta_mean_anomaly": 47.8863,
        "meta_ephemeris_type": 0,
        "meta_classification_type": "U",
        "meta_norad_cat_id": 34589,
        "meta_element_set_no": 999,
        "meta_rev_at_epoch": 84650,
        "meta_bstar": 0.00039289139,
        "meta_mean_motion_dot": 5.56e-06,
        "meta_mean_motion_ddot": 0,
        "tle_line1": "1 34589U 93036WB  25342.28966640  .00000556  00000+0  39289-3 0  9996",
        "tle_line2": "2 34589  73.9253  63.6140 0251754   7.8505  47.8863 13.86047375846502"
      },
      "geometry": {
        "type": "Point",
        "coordinates": [
          -109.9336234677886,
          -27.72936967143654
        ]
      }
    },
    {
      "type": "Feature",
      "properties": {
        "norad_id": 34590,
        "name": "COSMOS 2251 DEB",
        "group": "cosmos-2251-debris",
        "lat": 34.85475367142934,
        "lon": 136.95967782254846,
        "alt_km": 672.7362966032988,
        "timestamp": "2025-12-09T14:52:26.557173+00:00",
        "meta_object_name": "COSMOS 2251 DEB",
        "meta_object_id": "1993-036WC",
        "meta_epoch": "2025-12-09T06:03:34.043040",
        "meta_mean_motion": 14.54820005,
        "meta_eccentricity": 0.0067964,
        "meta_inclination": 74.0436,
        "meta_ra_of_asc_node": 329.1477,
        "meta_arg_of_pericenter": 99.7808,
        "meta_mean_anomaly": 280.3572,
        "meta_ephemeris_type": 0,
        "meta_classification_type": "U",
        "meta_norad_cat_id": 34590,
        "meta_element_set_no": 999,
        "meta_rev_at_epoch": 89070,
        "meta_bstar": 0.00023137286,
        "meta_mean_motion_dot": 9.94e-06,
        "meta_mean_motion_ddot": 0,
        "tle_line1": "1 34590U 93036WC  25343.25247735  .00000994  00000+0  23137-3 0  9994",
        "tle_line2": "2 34590  74.0436 329.1477 0067964  99.7808 280.3572 14.54820005890703"
      },
      "geometry": {
        "type": "Point",
        "coordinates": [
          136.95967782254846,
          34.85475367142934
        ]
      }
    },
    {
      "type": "Feature",
      "properties": {
        "norad_id": 34609,
        "name": "COSMOS 2251 DEB",
        "group": "cosmos-2251-debris",
        "lat": -70.16009489303858,
        "lon": 58.402865201871,
        "alt_km": 759.5486465919785,
        "timestamp": "2025-12-09T14:52:26.557184+00:00",
        "meta_object_name": "COSMOS 2251 DEB",
        "meta_object_id": "1993-036WE",
        "meta_epoch": "2025-12-08T19:41:00.148704",
        "meta_mean_motion": 14.2177271,
        "meta_eccentricity": 0.01448905,
        "meta_inclination": 73.733,
        "meta_ra_of_asc_node": 113.8855,
        "meta_arg_of_pericenter": 333.9898,
        "meta_mean_anomaly": 177.6807,
        "meta_ephemeris_type": 0,
        "meta_classification_type": "U",
        "meta_norad_cat_id": 34609,
        "meta_element_set_no": 999,
        "meta_rev_at_epoch": 86576,
        "meta_bstar": 0.0013090611,
        "meta_mean_motion_dot": 3.177e-05,
        "meta_mean_motion_ddot": 0,
        "tle_line1": "1 34609U 93036WE  25342.82014061  .00003177  00000+0  13091-2 0  9994",
        "tle_line2": "2 34609  73.7330 113.8855 0144890 333.9898 177.6807 14.21772710865767"
      },
      "geometry": {
        "type": "Point",
        "coordinates": [
          58.402865201871,
          -70.16009489303858
        ]
      }
    },
    {
      "type": "Feature",
      "properties": {
        "norad_id": 34610,
        "name": "COSMOS 2251 DEB",
        "group": "cosmos-2251-debris",
        "lat": -66.7065655632066,
        "lon": 129.51573929795265,
        "alt_km": 984.4030503348376,
        "timestamp": "2025-12-09T14:52:26.557194+00:00",
        "meta_object_name": "COSMOS 2251 DEB",
        "meta_object_id": "1993-036WF",
        "meta_epoch": "2025-12-08T20:36:47.149056",
        "meta_mean_motion": 14.07013435,
        "meta_eccentricity": 0.01802466,
        "meta_inclination": 74.0204,
        "meta_ra_of_asc_node": 269.1248,
        "meta_arg_of_pericenter": 40.5884,
        "meta_mean_anomaly": 320.853,
        "meta_ephemeris_type": 0,
        "meta_classification_type": "U",
        "meta_norad_cat_id": 34610,
        "meta_element_set_no": 999,
        "meta_rev_at_epoch": 85505,
        "meta_bstar": 0.0033348409,
        "meta_mean_motion_dot": 6.437e-05,
        "meta_mean_motion_ddot": 0,
        "tle_line1": "1 34610U 93036WF  25342.85887904  .00006437  00000+0  33348-2 0  9992",
        "tle_line2": "2 34610  74.0204 269.1248 0180246  40.5884 320.8530 14.07013435855057"
      },
      "geometry": {
        "type": "Point",
        "coordinates": [
          129.51573929795265,
          -66.7065655632066
        ]
      }
    },
    {
      "type": "Feature",
      "properties": {
        "norad_id": 34611,
        "name": "COSMOS 2251 DEB",
        "group": "cosmos-2251-debris",
        "lat": -30.46347903863349,
        "lon": 97.3228226362774,
        "alt_km": 684.924736863999,
        "timestamp": "2025-12-09T14:52:26.557204+00:00",
        "meta_object_name": "COSMOS 2251 DEB",
        "meta_object_id": "1993-036WG",
        "meta_epoch": "2025-12-08T11:33:31.679424",
        "meta_mean_motion": 14.69373356,
        "meta_eccentricity": 0.00231754,
        "meta_inclination": 74.0536,
        "meta_ra_of_asc_node": 109.2058,
        "meta_arg_of_pericenter": 152.3424,
        "meta_mean_anomaly": 277.9243,
        "meta_ephemeris_type": 0,
        "meta_classification_type": "U",
        "meta_norad_cat_id": 34611,
        "meta_element_set_no": 999,
        "meta_rev_at_epoch": 88328,
        "meta_bstar": 0.0022807542,
        "meta_mean_motion_dot": 0.00013536,
        "meta_mean_motion_ddot": 0,
        "tle_line1": "1 34611U 93036WG  25342.48161666  .00013536  00000+0  22808-2 0  9999",
        "tle_line2": "2 34611  74.0536 109.2058 0023175 152.3424 277.9243 14.69373356883286"
      },
      "geometry": {
        "type": "Point",
        "coordinates": [
          97.3228226362774,
          -30.46347903863349
        ]
      }
    },
    {
      "type": "Feature",
      "properties": {
        "norad_id": 34613,
        "name": "COSMOS 2251 DEB",
        "group": "cosmos-2251-debris",
        "lat": 0.6058270610151972,
        "lon": 104.04498913246339,
        "alt_km": 768.9035484016431,
        "timestamp": "2025-12-09T14:52:26.557214+00:00",
        "meta_object_name": "COSMOS 2251 DEB",
        "meta_object_id": "1993-036WJ",
        "meta_epoch": "2025-12-08T06:46:17.263200",
        "meta_mean_motion": 14.26392595,
        "meta_eccentricity": 0.01101087,
        "meta_inclination": 73.9641,
        "meta_ra_of_asc_node": 286.6469,
        "meta_arg_of_pericenter": 119.6298,
        "meta_mean_anomaly": 32.5714,
        "meta_ephemeris_type": 0,
        "meta_classification_type": "U",
        "meta_norad_cat_id": 34613,
        "meta_element_set_no": 999,
        "meta_rev_at_epoch": 86399,
        "meta_bstar": 0.0018958544,
        "meta_mean_motion_dot": 4.838e-05,
        "meta_mean_motion_ddot": 0,
        "tle_line1": "1 34613U 93036WJ  25342.28214425  .00004838  00000+0  18959-2 0  9998",
        "tle_line2": "2 34613  73.9641 286.6469 0110108 119.6298  32.5714 14.26392595863990"
      },
      "geometry": {
        "type": "Point",
        "coordinates": [
          104.04498913246339,
          0.6058270610151972
        ]
      }
    }
  ]
}